WEINA 1A                
1 43169U 18011A   26068.00959261  .00003960  00000+0  31000-3 0  9992
2 43169  34.9964  50.6465 0003550 253.6699 106.3619 15.00525085443063
STARLINK-4424           
1 53681U 22105AK  26068.65978250  .00000306  00000+0  28372-4 0  9991
2 53681  97.6020 310.1899 0001797  58.5581 301.5819 15.01262800193236
